{
  "type": "FeatureCollection",
  "features": [
    {
      "type": "Feature",
      "properties": {
        "norad_id": 34648,
        "name": "IRIDIUM 33 DEB",
        "group": "iridium-33-debris",
        "lat": -20.047504134356533,
        "lon": -85.4775345648654,
        "alt_km": 852.9680108037073,
        "timestamp": "2025-12-27T20:30:59.665570+00:00",
        "meta_object_name": "IRIDIUM 33 DEB",
        "meta_object_id": "1997-051JZ",
        "meta_epoch": "2025-12-26T17:23:51.360000",
        "meta_mean_motion": 14.11887507,
        "meta_eccentricity": 0.01778864,
        "meta_inclination": 86.3901,
        "meta_ra_of_asc_node": 276.2989,
        "meta_arg_of_pericenter": 254.825,
        "meta_mean_anomaly": 103.3201,
        "meta_ephemeris_type": 0,
        "meta_classification_type": "U",
        "meta_norad_cat_id": 34648,
        "meta_element_set_no": 999,
        "meta_rev_at_epoch": 85158,
        "meta_bstar": 0.0061458154,
        "meta_mean_motion_dot": 0.00013057,
        "meta_mean_motion_ddot": 0,
        "tle_line1": "1 34648U 97051JZ  25360.72490000  .00013057  00000+0  61458-2 0  9996",
        "tle_line2": "2 34648  86.3901 276.2989 0177886 254.8250 103.3201 14.11887507851589"
      },
      "geometry": {
        "type": "Point",
        "coordinates": [
          -85.4775345648654,
          -20.047504134356533
        ]
      }
    },
    {
      "type": "Feature",
      "properties": {
        "norad_id": 34651,
        "name": "IRIDIUM 33 DEB",
        "group": "iridium-33-debris",
        "lat": 85.35788110744133,
        "lon": -172.66053666367822,
        "alt_km": 759.4756805749057,
        "timestamp": "2025-12-27T20:30:59.665580+00:00",
        "meta_object_name": "IRIDIUM 33 DEB",
        "meta_object_id": "1997-051KC",
        "meta_epoch": "2025-12-25T15:53:57.959232",
        "meta_mean_motion": 14.26027654,
        "meta_eccentricity": 0.0142018,
        "meta_inclination": 86.2827,
        "meta_ra_of_asc_node": 135.0795,
        "meta_arg_of_pericenter": 163.1805,
        "meta_mean_anomaly": 197.4168,
        "meta_ephemeris_type": 0,
        "meta_classification_type": "U",
        "meta_norad_cat_id": 34651,
        "meta_element_set_no": 999,
        "meta_rev_at_epoch": 86080,
        "meta_bstar": 0.0036817,
        "meta_mean_motion_dot": 9.797e-05,
        "meta_mean_motion_ddot": 0,
        "tle_line1": "1 34651U 97051KC  25359.66247638  .00009797  00000+0  36817-2 0  9995",
        "tle_line2": "2 34651  86.2827 135.0795 0142018 163.1805 197.4168 14.26027654860809"
      },
      "geometry": {
        "type": "Point",
        "coordinates": [
          -172.66053666367822,
          85.35788110744133
        ]
      }
    },
    {
      "type": "Feature",
      "properties": {
        "norad_id": 34652,
        "name": "IRIDIUM 33 DEB",
        "group": "iridium-33-debris",
        "lat": -53.61698089117674,
        "lon": -31.723534318988094,
        "alt_km": 685.1346584065404,
        "timestamp": "2025-12-27T20:30:59.665591+00:00",
        "meta_object_name": "IRIDIUM 33 DEB",
        "meta_object_id": "1997-051KD",
        "meta_epoch": "2025-12-27T06:16:50.055744",
        "meta_mean_motion": 14.62192281,
        "meta_eccentricity": 0.0025503,
        "meta_inclination": 86.3321,
        "meta_ra_of_asc_node": 333.535,
        "meta_arg_of_pericenter": 244.7138,
        "meta_mean_anomaly": 180.9757,
        "meta_ephemeris_type": 0,
        "meta_classification_type": "U",
        "meta_norad_cat_id": 34652,
        "meta_element_set_no": 999,
        "meta_rev_at_epoch": 88696,
        "meta_bstar": 0.0010804,
        "meta_mean_motion_dot": 5.485e-05,
        "meta_mean_motion_ddot": 0,
        "tle_line1": "1 34652U 97051KD  25361.26169046  .00005485  00000+0  10804-2 0  9999",
        "tle_line2": "2 34652  86.3321 333.5350 0025503 244.7138 180.9757 14.62192281886961"
      },
      "geometry": {
        "type": "Point",
        "coordinates": [
          -31.723534318988094,
          -53.61698089117674
        ]
      }
    },
    {
      "type": "Feature",
      "properties": {
        "norad_id": 34690,
        "name": "IRIDIUM 33 DEB",
        "group": "iridium-33-debris",
        "lat": 31.462040984910335,
        "lon": -151.80060270931648,
        "alt_km": 713.6576587298068,
        "timestamp": "2025-12-27T20:30:59.665601+00:00",
        "meta_object_name": "IRIDIUM 33 DEB",
        "meta_object_id": "1997-051KM",
        "meta_epoch": "2025-12-26T19:53:36.427776",
        "meta_mean_motion": 14.55146043,
        "meta_eccentricity": 0.00092349,
        "meta_inclination": 86.3773,
        "meta_ra_of_asc_node": 30.867,
        "meta_arg_of_pericenter": 341.6712,
        "meta_mean_anomaly": 195.6004,
        "meta_ephemeris_type": 0,
        "meta_classification_type": "U",
        "meta_norad_cat_id": 34690,
        "meta_element_set_no": 999,
        "meta_rev_at_epoch": 88299,
        "meta_bstar": 0.00044241179,
        "meta_mean_motion_dot": 1.932e-05,
        "meta_mean_motion_ddot": 0,
        "tle_line1": "1 34690U 97051KM  25360.82889384  .00001932  00000+0  44241-3 0  9992",
        "tle_line2": "2 34690  86.3773  30.8670 0009234 341.6712 195.6004 14.55146043882998"
      },
      "geometry": {
        "type": "Point",
        "coordinates": [
          -151.80060270931648,
          31.462040984910335
        ]
      }
    },
    {
      "type": "Feature",
      "properties": {
        "norad_id": 34693,
        "name": "IRIDIUM 33 DEB",
        "group": "iridium-33-debris",
        "lat": -66.91608046813441,
        "lon": -72.42630669093128,
        "alt_km": 477.7656055243233,
        "timestamp": "2025-12-27T20:30:59.665611+00:00",
        "meta_object_name": "IRIDIUM 33 DEB",
        "meta_object_id": "1997-051KQ",
        "meta_epoch": "2025-12-26T19:48:57.228768",
        "meta_mean_motion": 15.31583943,
        "meta_eccentricity": 0.00088429,
        "meta_inclination": 86.3049,
        "meta_ra_of_asc_node": 296.8095,
        "meta_arg_of_pericenter": 29.7643,
        "meta_mean_anomaly": 351.8395,
        "meta_ephemeris_type": 0,
        "meta_classification_type": "U",
        "meta_norad_cat_id": 34693,
        "meta_element_set_no": 999,
        "meta_rev_at_epoch": 89130,
        "meta_bstar": 0.005056928,
        "meta_mean_motion_dot": 0.00157281,
        "meta_mean_motion_ddot": 0,
        "tle_line1": "1 34693U 97051KQ  25360.82566237  .00157281  00000+0  50569-2 0  9992",
        "tle_line2": "2 34693  86.3049 296.8095 0008842  29.7643 351.8395 15.31583943891306"
      },
      "geometry": {
        "type": "Point",
        "coordinates": [
          -72.42630669093128,
          -66.91608046813441
        ]
      }
    },
    {
      "type": "Feature",
      "properties": {
        "norad_id": 34696,
        "name": "IRIDIUM 33 DEB",
        "group": "iridium-33-debris",
        "lat": 51.496566129380426,
        "lon": -164.32272436502265,
        "alt_km": 618.8326309299382,
        "timestamp": "2025-12-27T20:30:59.665621+00:00",
        "meta_object_name": "IRIDIUM 33 DEB",
        "meta_object_id": "1997-051KT",
        "meta_epoch": "2025-12-27T02:10:03.448416",
        "meta_mean_motion": 14.65770071,
        "meta_eccentricity": 0.00737714,
        "meta_inclination": 86.1861,
        "meta_ra_of_asc_node": 20.8432,
        "meta_arg_of_pericenter": 119.2353,
        "meta_mean_anomaly": 297.1257,
        "meta_ephemeris_type": 0,
        "meta_classification_type": "U",
        "meta_norad_cat_id": 34696,
        "meta_element_set_no": 999,
        "meta_rev_at_epoch": 86883,
        "meta_bstar": 0.0050796435,
        "meta_mean_motion_dot": 0.00028933,
        "meta_mean_motion_ddot": 0,
        "tle_line1": "1 34696U 97051KT  25361.09031769  .00028933  00000+0  50796-2 0  9995",
        "tle_line2": "2 34696  86.1861  20.8432 0073771 119.2353 297.1257 14.65770071868832"
      },
      "geometry": {
        "type": "Point",
        "coordinates": [
          -164.32272436502265,
          51.496566129380426
        ]
      }
    },
    {
      "type": "Feature",
      "properties": {
        "norad_id": 34765,
        "name": "IRIDIUM 33 DEB",
        "group": "iridium-33-debris",
        "lat": 77.86870780632357,
        "lon": -171.06113198404344,
        "alt_km": 743.5097396895644,
        "timestamp": "2025-12-27T20:30:59.665631+00:00",
        "meta_object_name": "IRIDIUM 33 DEB",
        "meta_object_id": "1997-051LJ",
        "meta_epoch": "2025-12-27T02:00:13.091040",
        "meta_mean_motion": 14.40501375,
        "meta_eccentricity": 0.00169933,
        "meta_inclination": 86.3377,
        "meta_ra_of_asc_node": 26.6052,
        "meta_arg_of_pericenter": 163.84,
        "meta_mean_anomaly": 260.2304,
        "meta_ephemeris_type": 0,
        "meta_classification_type": "U",
        "meta_norad_cat_id": 34765,
        "meta_element_set_no": 999,
        "meta_rev_at_epoch": 87820,
        "meta_bstar": 0.00044425605,
        "meta_mean_motion_dot": 1.435e-05,
        "meta_mean_motion_ddot": 0,
        "tle_line1": "1 34765U 97051LJ  25361.08348485  .00001435  00000+0  44426-3 0  9999",
        "tle_line2": "2 34765  86.3377  26.6052 0016993 163.8400 260.2304 14.40501375878204"
      },
      "geometry": {
        "type": "Point",
        "coordinates": [
          -171.06113198404344,
          77.86870780632357
        ]
      }
    }
  ]
}